NORAD_CAT_ID,OBJECT_NAME,OBJECT_TYPE,EPOCH,MEAN_MOTION,ECCENTRICITY,INCLINATION,RA_OF_ASC_NODE,ARG_OF_PERICENTER,MEAN_ANOMALY,BSTAR,MEAN_MOTION_DOT,MEAN_MOTION_DDOT,TLE_LINE0,TLE_LINE1,TLE_LINE2,SEMIMAJOR_AXIS,PERIOD,APOGEE,PERIGEE,DECAYED
56460.0,STARLINK-6047,PAYLOAD,2024-02-01 15:48:52,14.98338182,0.0001981,69.9998,278.3555,258.7473,101.3464,-0.0001013,-1.302e-05,0.0,0 STARLINK-6047,1 56460U 23064N   24032.65894058 -.00001302  00000-0 -10130-3 0  9998,2 56460  69.9998 278.3555 0001981 258.7473 101.3464 14.98338182 40351,6950.168,96.106,573.409,570.656,0.0
56460.0,STARLINK-6047,PAYLOAD,2024-02-02 01:25:40,14.98335179,0.0002077,69.9996,277.346,259.7242,100.3683,-0.00012764,-1.616e-05,0.0,0 STARLINK-6047,1 56460U 23064N   24033.05950133 -.00001616  00000-0 -12764-3 0  9993,2 56460  69.9996 277.3460 0002077 259.7242 100.3683 14.98335179 40776,6950.177,96.107,573.485,570.598,0.0
56460.0,STARLINK-6047,PAYLOAD,2024-02-02 22:15:25,14.98331072,0.0002436,69.9986,275.1582,255.9671,104.1217,3.3978e-05,3.13e-06,0.0,0 STARLINK-6047,1 56460U 23064N   24033.92737605  .00000313  00000-0  33978-4 0  9998,2 56460  69.9986 275.1582 0002436 255.9671 104.1217 14.98331072 40547,6950.19,96.107,573.748,570.362,0.0
56460.0,STARLINK-6047,PAYLOAD,2024-02-03 01:27:41,14.98331923,0.0002542,69.9982,274.8207,269.0679,91.0189,2.9412e-05,2.58e-06,0.0,0 STARLINK-6047,1 56460U 23064N   24034.06089612  .00000258  00000-0  29412-4 0  9998,2 56460  69.9982 274.8207 0002542 269.0679  91.0189 14.98331923 40924,6950.187,96.107,573.819,570.285,0.0
56460.0,STARLINK-6047,PAYLOAD,2024-02-03 22:17:26,14.98327357,0.0002523,69.9981,272.6318,266.3548,93.7323,-2.3187e-05,-3.7e-06,0.0,0 STARLINK-6047,1 56460U 23064N   24034.92878082 -.00000370  00000-0 -23187-4 0  9990,2 56460  69.9981 272.6318 0002523 266.3548  93.7323 14.98327357 40695,6950.201,96.107,573.82,570.313,0.0
56460.0,STARLINK-6047,PAYLOAD,2024-02-04 01:29:42,14.98328567,0.0002506,69.9982,272.2953,266.1625,93.9247,-8.4701e-06,-1.94e-06,0.0,0 STARLINK-6047,1 56460U 23064N   24035.06229974 -.00000194  00000-0 -84701-5 0  9990,2 56460  69.9982 272.2953 0002506 266.1625  93.9247 14.98328567 41076,6950.197,96.107,573.804,570.321,0.0
56460.0,STARLINK-6047,PAYLOAD,2024-02-04 22:19:27,14.98329906,0.0002534,69.9979,270.1068,266.3758,93.7111,-1.7404e-05,-3.01e-06,0.0,0 STARLINK-6047,1 56460U 23064N   24035.93017920 -.00000301  00000-0 -17404-4 0  9997,2 56460  69.9979 270.1068 0002534 266.3758  93.7111 14.98329906 40846,6950.193,96.107,573.819,570.297,0.0
56460.0,STARLINK-6047,PAYLOAD,2024-02-05 01:31:43,14.98331557,0.0002528,69.9979,269.77,267.4885,92.5984,3.0058e-06,-5.7e-07,0.0,0 STARLINK-6047,1 56460U 23064N   24036.06369760 -.00000057  00000-0  30058-5 0  9992,2 56460  69.9979 269.7700 0002528 267.4885  92.5984 14.98331557 41222,6950.188,96.107,573.81,570.296,0.0
56460.0,STARLINK-6047,PAYLOAD,2024-02-05 22:21:28,14.98332064,0.0002574,69.9978,267.5816,267.6878,92.3986,4.861e-05,4.87e-06,0.0,0 STARLINK-6047,1 56460U 23064N   24036.93157529  .00000487  00000-0  48610-4 0  9994,2 56460  69.9978 267.5816 0002574 267.6878  92.3986 14.98332064 40997,6950.187,96.107,573.84,570.263,0.0
56460.0,STARLINK-6047,PAYLOAD,2024-02-06 01:33:44,14.98333665,0.0002566,69.9979,267.2452,267.7336,92.3529,6.3858e-05,6.69e-06,0.0,0 STARLINK-6047,1 56460U 23064N   24037.06509360  .00000669  00000-0  63858-4 0  9996,2 56460  69.9979 267.2452 0002566 267.7336  92.3529 14.98333665 41376,6950.182,96.107,573.83,570.263,0.0
56460.0,STARLINK-6047,PAYLOAD,2024-02-06 22:23:28,14.98332636,0.0002522,69.9979,265.0566,269.2347,90.8523,2.5424e-05,2.1e-06,0.0,0 STARLINK-6047,1 56460U 23064N   24037.93297395  .00000210  00000-0  25424-4 0  9993,2 56460  69.9979 265.0566 0002522 269.2347  90.8523 14.98332636 41148,6950.185,96.107,573.803,570.297,0.0
56460.0,STARLINK-6047,PAYLOAD,2024-02-07 01:35:44,14.98334515,0.0002503,69.998,264.7201,268.8903,91.1969,4.5275e-05,4.47e-06,0.0,0 STARLINK-6047,1 56460U 23064N   24038.06649183  .00000447  00000-0  45275-4 0  9992,2 56460  69.9980 264.7201 0002503 268.8903  91.1969 14.98334515 41522,6950.179,96.107,573.784,570.304,0.0
56460.0,STARLINK-6047,PAYLOAD,2024-02-07 08:00:17,14.98329236,0.0002436,69.9981,264.0462,272.539,87.549,-4.4219e-05,-6.2e-06,0.0,0 STARLINK-6047,1 56460U 23064N   24038.33353773 -.00000620  00000-0 -44219-4 0  9991,2 56460  69.9981 264.0462 0002436 272.5390  87.5490 14.98329236 41568,6950.195,96.107,573.753,570.367,0.0
56460.0,STARLINK-6047,PAYLOAD,2024-02-07 14:24:50,14.98327745,0.0002368,69.9982,263.3734,270.4404,89.6484,-5.0337e-05,-6.93e-06,0.0,0 STARLINK-6047,1 56460U 23064N   24038.60057893 -.00000693  00000-0 -50337-4 0  9993,2 56460  69.9982 263.3734 0002368 270.4404  89.6484 14.98327745 41244,6950.2,96.107,573.711,570.419,0.0
56460.0,STARLINK-6047,PAYLOAD,2024-02-07 20:49:22,14.98327332,0.000242,69.9981,262.7005,267.4609,92.6273,-5.889e-05,-7.95e-06,0.0,0 STARLINK-6047,1 56460U 23064N   24038.86761936 -.00000795  00000-0 -58890-4 0  9996,2 56460  69.9981 262.7005 0002420 267.4609  92.6273 14.98327332 41285,6950.201,96.107,573.748,570.384,0.0
56460.0,STARLINK-6047,PAYLOAD,2024-02-08 08:02:18,14.98328919,0.000254,69.9979,261.5226,268.7032,91.3836,-3.824e-05,-5.49e-06,0.0,0 STARLINK-6047,1 56460U 23064N   24039.33493846 -.00000549  00000-0 -38240-4 0  9995,2 56460  69.9979 261.5226 0002540 268.7032  91.3836 14.98328919 41712,6950.196,96.107,573.827,570.296,0.0
56460.0,STARLINK-6047,PAYLOAD,2024-02-08 14:26:50,14.98332377,0.0002628,69.9977,260.8491,268.8332,91.2525,-1.2233e-05,-2.39e-06,0.0,0 STARLINK-6047,1 56460U 23064N   24039.60197561 -.00000239  00000-0 -12233-4 0  9990,2 56460  69.9977 260.8491 0002628 268.8332  91.2525 14.98332377 41398,6950.186,96.107,573.877,570.224,0.0
56460.0,STARLINK-6047,PAYLOAD,2024-02-08 22:27:30,14.9833327,0.0002641,69.9979,260.0074,268.7693,91.3164,1.2397e-06,-7.8e-07,0.0,0 STARLINK-6047,1 56460U 23064N   24039.93577405 -.00000078  00000-0  12397-5 0  9997,2 56460  69.9979 260.0074 0002641 268.7693  91.3164 14.98333270 41442,6950.183,96.107,573.883,570.212,0.0
56460.0,STARLINK-6047,PAYLOAD,2024-02-09 00:03:38,14.98333708,0.0002637,69.9979,259.8391,268.7851,91.3006,6.8616e-06,-1.1e-07,0.0,0 STARLINK-6047,1 56460U 23064N   24040.00253350 -.00000011  00000-0  68616-5 0  9999,2 56460  69.9979 259.8391 0002637 268.7851  91.3006 14.98333708 41813,6950.181,96.107,573.879,570.214,0.0
56460.0,STARLINK-6047,PAYLOAD,2024-02-09 14:28:51,14.98327698,0.000268,69.998,258.324,268.9621,91.123,8.1865e-05,8.84e-06,0.0,0 STARLINK-6047,1 56460U 23064N   24040.60337480  .00000884  00000-0  81865-4 0  9999,2 56460  69.9980 258.3240 0002680 268.9621  91.1230 14.98327698 41545,6950.2,96.107,573.928,570.202,0.0
56460.0,STARLINK-6047,PAYLOAD,2024-02-10 00:05:39,14.98330307,0.0002698,69.9982,257.3139,268.9591,91.1259,7.8662e-05,8.46e-06,0.0,0 STARLINK-6047,1 56460U 23064N   24041.00393328  .00000846  00000-0  78662-4 0  9996,2 56460  69.9982 257.3139 0002698 268.9591  91.1259 14.98330307 41966,6950.192,96.107,573.932,570.182,0.0
56460.0,STARLINK-6047,PAYLOAD,2024-02-10 14:30:52,14.98332304,0.0002631,69.9985,255.7988,270.0871,89.9987,1.036e-05,3.1e-07,0.0,0 STARLINK-6047,1 56460U 23064N   24041.60477374  .00000031  00000-0  10360-4 0  9993,2 56460  69.9985 255.7988 0002631 270.0871  89.9987 14.98332304 41697,6950.186,96.107,573.879,570.222,0.0
56460.0,STARLINK-6047,PAYLOAD,2024-02-10 22:31:32,14.98332643,0.0002676,69.9985,254.957,268.4836,91.6016,-7.6699e-06,-1.84e-06,0.0,0 STARLINK-6047,1 56460U 23064N   24041.93857322 -.00000184  00000-0 -76699-5 0  9993,2 56460  69.9985 254.9570 0002676 268.4836  91.6016 14.98332643 41741,6950.185,96.107,573.91,570.19,0.0
56460.0,STARLINK-6047,PAYLOAD,2024-02-11 00:07:40,14.98333221,0.000269,69.9985,254.7883,270.5281,89.557,-2.1353e-06,-1.18e-06,0.0,0 STARLINK-6047,1 56460U 23064N   24042.00533266 -.00000118  00000-0 -21353-5 0  9994,2 56460  69.9985 254.7883 0002690 270.5281  89.5570 14.98333221 42116,6950.183,96.107,573.918,570.178,0.0
56460.0,STARLINK-6047,PAYLOAD,2024-02-11 14:32:53,14.98332943,0.0002671,69.9987,253.2731,272.865,87.2203,7.2051e-06,-7e-08,0.0,0 STARLINK-6047,1 56460U 23064N   24042.60617153 -.00000007  00000-0  72051-5 0  9995,2 56460  69.9987 253.2731 0002671 272.8650  87.2203 14.98332943 41845,6950.184,96.107,573.905,570.192,0.0
56460.0,STARLINK-6047,PAYLOAD,2024-02-11 22:33:33,14.98333064,0.0002688,69.999,252.4311,272.2677,87.8174,7.9854e-06,2e-08,0.0,0 STARLINK-6047,1 56460U 23064N   24042.93997052  .00000002  00000-0  79854-5 0  9992,2 56460  69.9990 252.4311 0002688 272.2677  87.8174 14.98333064 41898,6950.183,96.107,573.917,570.18,0.0
56460.0,STARLINK-6047,PAYLOAD,2024-02-12 00:09:41,14.98334565,0.000268,69.9991,252.2628,271.8833,88.2019,2.4435e-05,1.99e-06,0.0,0 STARLINK-6047,1 56460U 23064N   24043.00672895  .00000199  00000-0  24435-4 0  9997,2 56460  69.9991 252.2628 0002680 271.8833  88.2019 14.98334565 42261,6950.179,96.107,573.906,570.181,0.0
56460.0,STARLINK-6047,PAYLOAD,2024-02-12 14:34:54,14.98329311,0.0002593,69.9994,250.7479,273.6975,86.3888,9.4582e-06,2e-07,0.0,0 STARLINK-6047,1 56460U 23064N   24043.60757203  .00000020  00000-0  94582-5 0  9994,2 56460  69.9994 250.7479 0002593 273.6975  86.3888 14.98329311 41996,6950.195,96.107,573.862,570.258,0.0
56460.0,STARLINK-6047,PAYLOAD,2024-02-12 19:23:18,14.98328656,0.0002621,69.9994,250.243,273.0985,86.9874,-8.4238e-07,-1.03e-06,0.0,0 STARLINK-6047,1 56460U 23064N   24043.80785271 -.00000103  00000-0 -84238-6 0  9994,2 56460  69.9994 250.2430 0002621 273.0985  86.9874 14.98328656 42381,6950.197,96.107,573.884,570.24,0.0
56460.0,STARLINK-6047,PAYLOAD,2024-02-12 22:35:34,14.98327908,0.000263,69.9994,249.9064,272.9882,87.0976,-1.0493e-05,-2.18e-06,0.0,0 STARLINK-6047,1 56460U 23064N   24043.94137340 -.00000218  00000-0 -10493-4 0  9994,2 56460  69.9994 249.9064 0002630 272.9882  87.0976 14.98327908 42040,6950.199,96.107,573.892,570.236,0.0
